SCD 1                   
1 22490U 93009B   26185.90132074  .00000522  00000+0  91643-4 0  9991
2 22490  24.9693  98.1993 0041705 325.7273 100.7600 14.46126323763683
TECHSAT 1B (GO-32)      
1 25397U 98043D   26185.69536283  .00000103  00000+0  64728-4 0  9998
2 25397  99.0076 178.8961 0001849 131.4740 228.6597 14.24432028453822
SCD 2                   
1 25504U 98060A   26185.78730730  .00000457  00000+0  76614-4 0  9999
2 25504  24.9964 323.6221 0016591 309.7555 199.1161 14.45532841462879
DLR-TUBSAT              
1 25757U 99029B   26185.92930874  .00000139  00000+0  46018-4 0  9994
2 25757  98.6703 182.0177 0013139 298.7800  61.2074 14.52431683435827
TERRA                   
1 25994U 99068A   26185.63628185  .00000621  00000+0  13521-3 0  9995
2 25994  97.9446 234.4899 0002873 143.9918  16.3015 14.61118561412157
MAROC-TUBSAT            
1 27004U 01056D   26185.73724020 -.00000025  00000+0  24282-4 0  9991
2 27004  99.8092   2.9282 0020625  97.8272 284.7558 13.70263158228596
AQUA                    
1 27424U 02022A   26185.90787659  .00001061  00000+0  22067-3 0  9995
2 27424  98.4287 155.5458 0000684  88.8721 295.4034 14.62186964285867
SHIYAN-1 (SY-1)         
1 28220U 04012A   26185.66572995  .00027973  00000+0  84428-3 0  9998
2 28220  97.8684 264.8746 0004283 324.3199  35.7756 15.34237024213777
AURA                    
1 28376U 04026A   26185.85697634  .00001066  00000+0  22535-3 0  9990
2 28376  98.3424 142.4574 0001186  87.5666 272.5670 14.61357650168797
IRS-P5 (CARTOSAT-1)     
1 28649U 05017A   26185.79468615  .00002035  00000+0  21062-3 0  9993
2 28649  97.5304 208.0603 0001986  59.6064 300.5351 14.91100246146446
SINAH 1                 
1 28893U 05043D   26185.82230753  .00000493  00000+0  10303-3 0  9999
2 28893  98.2883 320.2501 0013680 216.8941 143.1321 14.64170831103107
RESURS-DK 1             
1 29228U 06021A   26185.55233613  .00003220  00000+0  18643-3 0  9993
2 29228  69.9337 294.6009 0006707 282.9755  77.0662 15.13292377105206
ARIRANG-2 (KOMPSAT-2)   
1 29268U 06031A   26186.00572240  .00000564  00000+0  11427-3 0  9992
2 29268  97.8308   9.5898 0015153  22.3338 138.9454 14.64671982 64089
LAPAN-TUBSAT            
1 29709U 07001A   26185.96415816  .00001151  00000+0  13822-3 0  9993
2 29709  98.1346 185.5894 0013315 123.8680 236.3803 14.85970685 53793
HAIYANG-1B              
1 31113U 07010A   26185.90451453  .00000134  00000+0  66705-4 0  9995
2 31113  98.3505 167.0633 0014160 144.3894 215.8238 14.31031561  3177
COSMO-SKYMED 1          
1 31598U 07023A   26185.98000660  .00002978  00000+0  26278-3 0  9992
2 31598  97.8851  17.9862 0001127  84.0422 276.0927 14.97189037 32456
TERRASAR-X              
1 31698U 07026A   26185.11987693  .00000503  00000+0  27165-4 0  9990
2 31698  97.4455 192.5852 0001824  98.3423 261.8018 15.19147925 55795
WORLDVIEW-1 (WV-1)      
1 32060U 07041A   26185.75322145  .00010659  00000+0  43656-3 0  9991
2 32060  97.3896 305.2480 0000920 284.9782  75.1354 15.24473858 45559
YAOGAN-3                
1 32289U 07055A   26185.98096168  .00002978  00000+0  30798-3 0  9995
2 32289  97.8146 215.6828 0001800  83.2888 276.8535 14.90854730  8521
COSMO-SKYMED 2          
1 32376U 07059A   26185.98381234  .00000492  00000+0  68333-4 0  9993
2 32376  97.8890   9.3239 0001341  91.2673 268.8694 14.82160901  4646
RADARSAT-2              
1 32382U 07061A   26185.95035547 -.00000220  00000+0 -68245-4 0  9996
2 32382  98.5777 192.6289 0001293  85.4828 274.6502 14.29980599968498
CARTOSAT-2A             
1 32783U 08021A   26185.97193144  .00001115  00000+0  15648-3 0  9998
2 32783  97.7618 234.0729 0013148  57.6362 302.6121 14.79267067981435
HUANJING 1A (HJ-1A)     
1 33320U 08041A   26185.96696368  .00000976  00000+0  12288-3 0  9994
2 33320  97.6691 171.1183 0020604  80.5566 279.7977 14.84027927961047
HUANJING 1B (HJ-1B)     
1 33321U 08041B   26185.94417341  .00001317  00000+0  16505-3 0  9991
2 33321  97.6528 174.2148 0037600 123.5297 236.9519 14.83351275961047
GEOEYE 1                
1 33331U 08042A   26185.91378734  .00000648  00000+0  13089-3 0  9992
2 33331  98.1331 259.6297 0004700  19.2364 340.9016 14.64643823952747
THEOS                   
1 33396U 08049A   26186.00553308 -.00000096  00000+0 -25233-4 0  9997
2 33396  98.5557 242.7101 0001123  85.4952 274.6354 14.20134904920495
COSMO-SKYMED 3          
1 33412U 08054A   26185.93793450  .00008999  00000+0  60231-3 0  9991
2 33412  97.8265  44.8022 0014887 200.7369 159.3255 15.07075846959610
YAOGAN-4                
1 33446U 08061A   26185.57232768  .00001508  00000+0  19075-3 0  9995
2 33446  97.9307 118.9546 0014771  19.9650 340.2138 14.83237838948246
GOSAT (IBUKI)           
1 33492U 09002A   26185.59298968  .00000290  00000+0  59651-4 0  9990
2 33492  98.0905 296.4573 0001270  82.4342 277.7007 14.67540265934010
DEIMOS-1                
1 35681U 09041A   26185.95694139  .00000805  00000+0  12603-3 0  9992
2 35681  97.7425 342.4155 0002521 106.6002 253.5485 14.75257236909505
